[{"OBJECT_NAME":"JILIN-1 GAOFEN 03D50","OBJECT_ID":"2022-167J","EPOCH":"2026-03-09T22:35:59.947584","MEAN_MOTION":15.32279726,"ECCENTRICITY":0.00065764,"INCLINATION":97.6731,"RA_OF_ASC_NODE":232.9458,"ARG_OF_PERICENTER":101.1473,"MEAN_ANOMALY":259.0507,"EPHEMERIS_TYPE":0,"CLASSIFICATION_TYPE":"U","NORAD_CAT_ID":54690,"ELEMENT_SET_NO":999,"REV_AT_EPOCH":18014,"BSTAR":0.00049467973,"MEAN_MOTION_DOT":0.00015359,"MEAN_MOTION_DDOT":0},{"OBJECT_NAME":"STARLINK-33804","OBJECT_ID":"2025-071U","EPOCH":"2026-03-09T11:23:12.766848","MEAN_MOTION":15.30183426,"ECCENTRICITY":0.00012634,"INCLINATION":53.1582,"RA_OF_ASC_NODE":141.1182,"ARG_OF_PERICENTER":58.6313,"MEAN_ANOMALY":301.4811,"EPHEMERIS_TYPE":0,"CLASSIFICATION_TYPE":"U","NORAD_CAT_ID":63511,"ELEMENT_SET_NO":999,"REV_AT_EPOCH":5236,"BSTAR":0.00084097169,"MEAN_MOTION_DOT":0.00024618,"MEAN_MOTION_DDOT":0}]
